#dP2024  9 30 18  0  0.00000000      96 __u+U IGS20 EXT  IAC
## 2334 151200.00000000   900.00000000 60583 0.7500000000000
+   54   G01G02G03G04G05G06G07G08G09G10G11G12G13G14G15G16G17
+        G18G19G20G21G22G23G24G25G26G27G28G29G30G31G32R01R02
+        R03R04R05R07R08R09R11R12R14R15R16R17R18R19R20R21R22
+        R24R25R26  0  0  0  0  0  0  0  0  0  0  0  0  0  0
+          0  0  0  0  0  0  0  0  0  0  0  0  0  0  0  0  0
++         0  8  7  7  7  8  7  7  7  6  8  8  8  7  7  7  7
++         9  8  8  8  7  7  7  8  7  7  7  6  7  7  7  8  9
++         8  7  7  7  7  9  8  9  7  9  8  7  9  9  8  8  8
++         9  9  7  0  0  0  0  0  0  0  0  0  0  0  0  0  0
++         0  0  0  0  0  0  0  0  0  0  0  0  0  0  0  0  0
%c M  cc GPS ccc cccc cccc cccc cccc ccccc ccccc ccccc ccccc
%c cc cc ccc ccc cccc cccc cccc cccc ccccc ccccc ccccc ccccc
%f  0.0000000  0.000000000  0.00000000000  0.000000000000000
%f  0.0000000  0.000000000  0.00000000000  0.000000000000000
%i    0    0    0    0      0      0      0      0         0
%i    0    0    0    0      0      0      0      0         0
/* IAC                                ULTRA-RAPID PREDICTION
/* S/V CLOCKS ARE ALIGNED TO GNSS TIME                      
/* G:C1WC2W R:C1PC2P E:C1XC5X C:C2IC6I J:C1CC2S             
/* PCV:IGS20_2317 OL/AL:FES2004  NONE     YN ORB:CoN CLK:CoN
*  2024 10 01 16  0  0.00000000
PG01 -14923.997237 -10504.239451 -19785.109100    183.042023
PG02 -13879.744192  16125.181658  16153.557162   -346.371888
PG03 -20948.889983  12846.587994 -10101.411997    556.399972
PG04 -11257.186163  10084.890879 -21829.440856    453.888107
PG05  25572.065493  -4323.601714  -6073.014647   -188.401703
PG06   6809.438728  18767.159016 -17395.175110     -7.661851
PG07  -5745.328497  25669.208728    895.787947    -31.826129
PG08 -19594.033977   -316.780742  18007.893715    370.780307
PG09   -909.423932  17897.084452 -19676.279385    380.078406
PG10  -9630.381168 -12252.818735  21772.136308   -143.639922
PG11  14509.660737   4099.619459 -21833.330493   -740.207948
PG12  23624.034739 -10045.633500  -6998.149439   -542.073338
PG13  20050.365691  10019.492441  14203.431622    679.346535
PG14   5315.535149  14692.357422  21531.547436    507.966411
PG15  19243.302764  -2417.572260  17695.921353    210.696614
PG16 -25049.963821  -1948.983391  -9615.208083   -166.292621
PG17  12062.792798  22047.909196   8719.416614    609.696322
PG18   5905.600411 -25728.961481   1460.462759   -656.197792
PG19  17569.777199  20224.932001   -662.440298    545.117453
PG20  21180.510053   1949.619255 -15740.518755    370.089916
PG21 -15255.838920   9618.510462  19521.440935    100.658395
PG22  13135.726686  11826.204991  20141.978796    -67.135937
PG23   5213.908126 -16036.636395  20489.359118    332.299598
PG24  14304.626296 -14591.763179  16299.266883   -485.900158
PG25  13507.535415 -16302.662147 -16219.536658    499.608710
PG26 -17727.256644  -7945.733132 -18432.621273     66.166525
PG27 -22008.219399 -10830.092170  10414.467427    -34.236058
PG28  -6667.110755 -20481.783233 -15552.222300   -430.959335
PG29   4423.783848 -16251.259926 -20548.640855   -574.227569
PG30   1742.169605  24358.188251  10260.660488   -310.787908
PG31 -13229.716725  -9001.700336 -21378.456605   -223.982310
PG32 -14789.827360 -21019.380152   7326.277759   -591.551439
PR01 -24064.295158  -7322.167918  -4224.280659     99.601215
PR02 -17256.512931   1891.095885 -18682.819564    -24.940838
PR03   -774.037696  11289.695049 -22814.796720    108.622994
PR04  15535.568714  14133.317285 -14438.771332    257.281913
PR05  23551.843678   9611.795450   1678.465598    138.481613
PR07    125.680303 -11552.350375  22780.889210     92.034734
PR08 -15823.653662 -14082.059429  14296.241183     -6.417487
PR09  20758.695750 -14491.394816   3488.368916    212.226765
PR11  -1338.061471 -12306.223655 -22293.975220     10.374839
PR12 -17257.026920   1854.344421 -18671.715788     45.496132
PR14 -12530.301510  17818.878773  13268.426004     27.003132
PR15   2998.160582  11391.341485  22645.266399     75.305615
PR16  17086.433345  -1855.940833  18875.143593     29.596922
PR17  -1271.639158  23997.674775   8643.008075    126.905207
PR18   5917.771793  23525.576717  -7806.206139    164.780940
PR19   9664.527945  13295.271985 -19507.776244   -293.343060
PR20   9070.513836  -9824.553831 -21716.299082   -119.868318
PR21   1826.862780 -23626.677424  -9385.678749   -139.132631
PR22  -6041.266943 -23123.984760   8949.046493     32.919537
PR24  -8915.795039  10805.731203  21344.642816    -74.270108
PR25   2101.014520 -24040.689729  -8213.255348    -95.941970
PR26 -14599.125745 -14037.666051  15510.736839     53.333823
*  2024 10 01 16 15  0.00000000
PG01 -12803.104081 -11237.997047 -20830.718095    183.033046
PG02 -13795.986771  14237.908028  17979.990333   -346.364611
PG03 -21937.067236  12979.760080  -7427.502926    556.411251
PG04 -13029.903384   8343.639575 -21589.876427    453.894334
PG05  24870.270250  -3845.964428  -8779.916679   -188.402850
PG06   6262.851691  20579.028224 -15440.426817     -7.686064
PG07  -6034.312194  25485.596757  -1966.470261    -31.822650
PG08 -21005.605285  -1700.902915  16306.969277    370.791275
PG09  -2713.979247  16474.704380 -20734.543314    380.093072
PG10  -7291.822347 -13015.660880  22208.701517   -143.651573
PG11  13862.000547   6508.396684 -21674.580866   -740.211127
PG12  24276.382379  -9955.629157  -4234.640741   -542.075787
PG13  20889.097693  11295.983761  11907.972717    679.348235
PG14   2957.195781  15382.092604  21482.527193    507.974041
PG15  20826.001585  -1144.500807  16015.665067    210.700571
PG16 -23939.083619  -2392.467542 -12074.643505   -166.283518
PG17  11142.331251  21417.391270  11280.415863    609.685317
PG18   6132.182116 -25674.631255  -1436.367687   -656.199353
PG19  17346.726836  20288.240726   2176.711543    545.121742
PG20  19570.025429   3018.235780 -17557.508002    370.089569
PG21 -15128.171064   7367.172216  20685.438960    100.657696
PG22  10926.606913  12422.185731  21125.751285    -67.139139
PG23   7384.289301 -16702.568320  19230.707779    332.307050
PG24  14296.340646 -12519.497575  17941.934372   -485.899396
PG25  15181.464839 -16655.680519 -14188.793121    499.608688
PG26 -15796.071991  -8898.225831 -19686.688125     66.158413
PG27 -22669.052485 -11698.625158   7847.920380    -34.236375
PG28  -6185.563140 -22076.865960 -13420.603222   -430.971343
PG29   6121.294390 -14567.550528 -21372.061142   -574.225076
PG30   1224.175589  25290.802372   7701.925296   -310.781319
PG31 -12600.488403 -11281.958893 -20622.518256   -223.981847
PG32 -13934.196011 -20543.908707   9941.881897   -591.547791
PR01 -24418.351558  -7292.807325  -1032.604637     99.602357
PR02 -19325.008663   1181.686647 -16611.198799    -24.941021
PR03  -3418.761312  10248.318838 -23066.929309    108.623714
PR04  13789.269440  13290.218557 -16815.233944    257.283482
PR05  23625.860427   9448.768877  -1551.237571    138.482091
PR07   2748.723484 -10505.925899  23115.291329     92.035447
PR08 -14099.143777 -13272.613840  16681.397643     -6.417490
PR09  20228.244709 -14161.382420   6589.642285    212.228646
PR11    711.425403 -14049.971642 -21270.642712     10.373811
PR12 -15339.152530    388.574511 -20354.522422     45.496447
PR14 -13597.417154  18830.046698  10535.581499     27.003219
PR15    888.913676  13141.485670  21863.464952     75.305268
PR16  15154.136241   -382.500651  20537.390356     29.597199
PR17  -1280.525453  22742.111617  11547.627312    126.908242
PR18   6212.647827  24268.184012  -4685.358624    164.782619
PR19  10029.202588  15560.659223 -17551.846178   -293.344430
PR20   9278.577463  -7086.000180 -22670.686412   -119.868789
PR21   1835.723257 -22276.867619 -12249.755283   -139.135495
PR22  -6281.199450 -24015.762542   5909.217303     32.910540
PR24  -9260.975025   8136.459921  22356.749184    -74.271521
PR25   2099.775591 -22837.992742 -11128.178018    -95.939064
PR26 -12725.773372 -13196.171624  17742.420794     53.354443
EOF
